satname,norad_id,inclination_deg,eccentricity,mean_motion_rev_per_day,perigee_km,apogee_km,l1,l2
STARLINK-1297,45395,53.0516,0.0002316,15.48551499,419.3879728805132,422.53731583577974,1 45395U 20019AM  26039.82521447  .00057699  00000+0  10656-2 0  9996,2 45395  53.0516 269.4568 0002316 109.9800 250.1457 15.48551499324933
STARLINK-1307,45397,53.0548,0.0001333,15.48118683,421.3233373804196,423.1363151763044,1 45397U 20019AP  26039.91670139  .00164089  00000+0  30197-2 0  9995,2 45397  53.0548 268.6181 0001333  85.7619 316.0550 15.48118683  5777
STARLINK-1255,45399,53.0444,0.0006872,15.46418037,422.5379976849672,431.89127297256346,1 45399U 20019AR  26039.84997848  .00101131  00000+0  19919-2 0  9996,2 45399  53.0444 240.9565 0006872 144.7012 215.4451 15.46418037325961
STARLINK-1260,45404,53.1605,0.0001049,15.30191566,474.5213326650228,475.9591712124784,1 45404U 20019AW  26039.91670139  .00003600  00000+0  13363-3 0  9992,2 45404  53.1605 262.8878 0001049  78.8746  46.8507 15.30191566  5848
STARLINK-1263,45405,53.1817,0.0001183,15.30177977,474.4700675873928,476.09158624524116,1 45405U 20019AX  26039.91670139 -.00023013  00000+0 -76778-3 0  9994,2 45405  53.1817 262.9203 0001183  92.9477  96.6680 15.30177977  5737
STARLINK-1265,45406,53.1557,0.0001026,15.29378376,476.96598306497435,478.3727945359551,1 45406U 20019AY  26039.83151398  .00006969  00000+0  25345-3 0  9990,2 45406  53.1557 263.3858 0001026  89.1261 270.9857 15.29378376325557
STARLINK-1278,45408,53.0485,0.000544,15.50089467,412.7683492624965,420.16087581693955,1 45408U 20019BA  26039.81904315  .00080491  00000+0  14006-2 0  9998,2 45408  53.0485 269.5331 0005440  99.8623 260.2999 15.50089467325470
STARLINK-1296,45412,53.1603,0.0001158,15.30172617,474.5032037031151,476.090458978455,1 45412U 20019BE  26039.82545758  .00007428  00000+0  26289-3 0  9992,2 45412  53.1603 263.3206 0001158 115.1298 244.9823 15.30172617325555
STARLINK-1298,45413,53.0395,0.0005331,15.81916518,321.4477183994977,328.5946256425059,1 45413U 20019BF  26039.91670139  .00303693  00000+0  14177-2 0  9990,2 45413  53.0395 200.1565 0005331 230.3726  70.1349 15.81916518  5978
STARLINK-1309,45414,53.0699,3.35e-05,15.48354283,421.3121833301102,421.7677616872679,1 45414U 20019BG  26039.91670139  .01003590  00000+0  16988-1 0  9996,2 45414  53.0699 262.0303 0000335 107.7896 305.3397 15.48354283  5847
STARLINK-1316,45415,53.1604,0.0001581,15.3019752,474.13895812942155,476.30599039518347,1 45415U 20019BH  26039.80542162 -.00000356  00000+0  11512-6 0  9999,2 45415  53.1604 263.4590 0001581 129.8055 230.3085 15.30197520325570
STARLINK-1318,45416,53.0349,0.0005512,15.91514221,294.3649563560348,301.7247792470989,1 45416U 20019BJ  26039.91670139  .00420774  78597-4  12783-2 0  9995,2 45416  53.0349 186.4240 0005512 288.1488 155.2863 15.91514221  6066
STARLINK-1286,45417,53.0495,0.0002245,15.48699041,419.0045105812269,422.0571124285925,1 45417U 20019BK  26039.84345813  .00029160  00000+0  54175-3 0  9991,2 45417  53.0495 269.0858 0002245  74.4971 285.6284 15.48699041325756
STARLINK-1308,45419,53.0559,0.0002407,15.42624324,436.7267500947419,440.00821535272553,1 45419U 20019BM  26039.09120560  .00029410  00000+0  67212-3 0  9994,2 45419  53.0559 293.4530 0002407  98.4328 261.6950 15.42624324325096
STARLINK-1329,45531,53.0525,0.0006837,15.50345287,411.07218966062464,420.3621058222452,1 45531U 20025A   26039.91670139  .00171235  00000+0  29094-2 0  9997,2 45531  53.0525 220.0804 0006837 155.4605  56.8529 15.50345287  5950
STARLINK-1338,45532,53.052,0.0005161,15.49130267,415.7609306936638,422.7772132411492,1 45532U 20025B   26039.91670139  .00189090  00000+0  33459-2 0  9996,2 45532  53.0520 223.1935 0005161 180.7549 183.1881 15.49130267  5742
STARLINK-1350,45535,53.0726,0.0001182,15.35315621,459.1749084058938,460.79144001507666,1 45535U 20025E   26039.56966862  .00014698  00000+0  43258-3 0  9991,2 45535  53.0726 169.8177 0001182 116.0123 244.1000 15.35315621321685
STARLINK-1362,45538,53.1539,0.0001433,15.29257967,477.0467653207934,479.0117425691742,1 45538U 20025H   26039.91670139  .00083070  00000+0  28676-2 0  9998,2 45538  53.1539 234.5657 0001433  97.1288 300.7389 15.29257967  5841
STARLINK-1368,45540,53.1303,0.0001385,15.24199004,492.2400448946855,494.143402951212,1 45540U 20025K   26039.91670139  .00097484  00000+0  39111-2 0  9991,2 45540  53.1303 234.8255 0001385  88.3520 297.5887 15.24199004  5733
STARLINK-1371,45542,53.0524,0.000331,15.43382254,433.88012589796017,438.39117439235724,1 45542U 20025M   26039.82812535  .00076465  00000+0  16786-2 0  9990,2 45542  53.0524 226.8225 0003310 162.3054 197.8067 15.43382254320871
STARLINK-1372,45543,53.1564,0.000181,15.29514677,476.02125714037356,478.5029116089172,1 45543U 20025N   26039.91670139  .00751611  00000+0  24094-1 0  9996,2 45543  53.1564 234.6667 0001810 135.0115 297.0570 15.29514677  5784
STARLINK-1373,45544,53.0523,0.0003459,15.45241536,428.31329304947303,433.02362466590967,1 45544U 20025P   26039.91670139  .00156681  00000+0  31870-2 0  9994,2 45544  53.0523 226.6232 0003459 204.1244 234.3240 15.45241536  5877
STARLINK-1294,45551,53.0322,0.0008047,15.88759214,300.38204881389265,311.1391135810709,1 45551U 20025W   26039.91670139  .00280572  00000+0  94355-3 0  9997,2 45551  53.0322 122.3802 0008047 355.7047 205.5069 15.88759214  5928
STARLINK-1327,45555,53.0506,0.0001589,15.48343851,420.4900409302518,422.65098797834435,1 45555U 20025AA  26039.91670139  .00159841  00000+0  29203-2 0  9994,2 45555  53.0506 204.9268 0001589 262.4849 106.1402 15.48343851  5892
STARLINK-1356,45564,53.0541,0.0001939,15.41128056,441.45625063957414,444.101401796981,1 45564U 20025AK  26039.71510290  .00099338  00000+0  23415-2 0  9996,2 45564  53.0541 211.4408 0001939 239.6194 120.4619 15.41128056321079
STARLINK-1357,45565,53.054,0.0001049,15.49697765,416.8966273222959,418.3223749382323,1 45565U 20025AL  26039.91670139  .00127598  00000+0  22340-2 0  9994,2 45565  53.0540 176.5840 0001049 221.2595  16.0120 15.49697765  5852
STARLINK-1361,45567,53.0527,0.0001352,15.42054297,439.12539419916993,440.9690312102848,1 45567U 20025AN  26039.91670139  .00170895  00000+0  38630-2 0  9993,2 45567  53.0527 210.9296 0001352 261.2808 173.6013 15.42054297  5799
STARLINK-1363,45568,53.0452,0.0004874,15.6897548,358.5444258070311,365.1145451370694,1 45568U 20025AP  26039.91670139  .00170232  00000+0  14231-2 0  9990,2 45568  53.0452 180.6718 0004874 327.6373  17.2559 15.68975480  5999
STARLINK-1366,45569,53.0457,0.0004688,15.68693837,359.4761150829936,365.7962640255191,1 45569U 20025AQ  26039.91670139  .00169645  00000+0  14348-2 0  9996,2 45569  53.0457 181.3264 0004688 319.9183 357.6256 15.68693837  5926
STARLINK-1376,45570,53.1606,0.000107,15.29356088,477.0024187455574,478.46957556694906,1 45570U 20025AR  26039.70362462  .00001790  00000+0  74352-4 0  9991,2 45570  53.1606 212.2697 0001070  83.4178 276.6945 15.29356088321060
STARLINK-1320,45572,53.0502,0.000713,15.62684796,375.08698750241547,384.72395606717964,1 45572U 20025AT  26039.91670139 -.00057740  00000+0 -62997-3 0  9998,2 45572  53.0502 127.1041 0007130 297.8988 196.1089 15.62684796  5999
STARLINK-1321,45573,53.0504,0.0001815,15.43495185,434.5665349704577,437.0399952867001,1 45573U 20025AU  26039.91670139  .00144792  00000+0  31306-2 0  9990,2 45573  53.0504 195.6894 0001815 210.5819 113.6157 15.43495185  5943
STARLINK-1331,45578,53.0543,0.0001155,15.44045909,433.3961002221131,434.9697461243659,1 45578U 20025AZ  26039.91670139  .00084541  00000+0  18121-2 0  9990,2 45578  53.0543 202.3551 0001155  83.0576 197.6476 15.44045909  5770
STARLINK-1333,45580,53.1593,0.0001093,15.30194862,474.4813375461399,475.9794836620986,1 45580U 20025BB  26039.69360671  .00003074  00000+0  11587-3 0  9997,2 45580  53.1593 212.4890 0001093  90.7000 269.4126 15.30194862321066
STARLINK-1335,45581,53.0563,0.0001691,15.0640219,546.0337706056825,548.3759212179702,1 45581U 20025BC  26039.73622973  .00001788  00000+0  13893-3 0  9991,2 45581  53.0563 206.5960 0001691  94.2981 265.8201 15.06402190321148
STARLINK-1337,45582,53.0548,0.0001104,15.53325356,406.27590387896726,407.7740676454232,1 45582U 20025BD  26039.91670139  .00105904  00000+0  16347-2 0  9990,2 45582  53.0548 200.9660 0001104  72.9366  13.2006 15.53325356  5794
STARLINK-1347,45586,53.0476,0.0003783,15.48607674,418.2261834528708,423.3702578408129,1 45586U 20025BH  26039.91670139  .00102221  00000+0  18669-2 0  9992,2 45586  53.0476 167.8170 0003783 273.2546 278.7300 15.48607674  5960
STARLINK-1364,45589,53.0523,0.0003004,15.44585922,430.54908629293186,434.64097409667284,1 45589U 20025BL  26039.91670139  .00117660  00000+0  24620-2 0  9992,2 45589  53.0523 200.6289 0003004 295.9497 305.9207 15.44585922  5859
STARLINK-1365,45590,53.0536,0.0001085,15.42471989,438.07663593553207,439.55591479628674,1 45590U 20025BM  26039.72720295  .00017809  00000+0  41341-3 0  9996,2 45590  53.0536 231.1726 0001085 155.6767 204.4289 15.42471989320813
STARLINK-1443,45660,53.0563,0.000128,15.06394923,546.3406716486197,548.1135648628933,1 45660U 20035D   26039.69660734  .00000968  00000+0  83852-4 0  9994,2 45660  53.0563 196.7748 0001280  75.1841 284.9290 15.06394923314367
STARLINK-1446,45663,53.0243,0.000262,15.41571076,439.6852197980061,443.25869489165416,1 45663U 20035G   26039.58431508  .00017114  00000+0  40971-3 0  9995,2 45663  53.0243 137.4931 0002620 158.5743 201.5371 15.41571076315188
STARLINK-1448,45665,53.0531,0.0003222,15.46614583,424.4455686905858,428.8305657439014,1 45665U 20035J   26039.91670139  .00127157  00000+0  24786-2 0  9993,2 45665  53.0531 190.6551 0003222 338.1431 222.9525 15.46614583  5863
STARLINK-1451,45668,53.0533,0.0002265,15.08480462,539.2754221927371,542.4097199384296,1 45668U 20035M   26039.67626277  .00026510  00000+0  16938-2 0  9994,2 45668  53.0533 196.8924 0002265 163.9994 196.1068 15.08480462314361
